{
  "type": "FeatureCollection",
  "features": [
    {
      "type": "Feature",
      "properties": {
        "norad_id": 31178,
        "name": "FENGYUN 1C DEB",
        "group": "fengyun-1c-debris",
        "lat": 7.162348569815715,
        "lon": -18.984369649936244,
        "alt_km": 744.4793595400015,
        "timestamp": "2025-12-06T11:28:11.343251+00:00",
        "meta_object_name": "FENGYUN 1C DEB",
        "meta_object_id": "1999-025BJG",
        "meta_epoch": "2025-12-05T18:33:03.686976",
        "meta_mean_motion": 14.22098654,
        "meta_eccentricity": 0.0126343,
        "meta_inclination": 99.5124,
        "meta_ra_of_asc_node": 341.463,
        "meta_arg_of_pericenter": 335.2641,
        "meta_mean_anomaly": 24.2509,
        "meta_ephemeris_type": 0,
        "meta_classification_type": "U",
        "meta_norad_cat_id": 31178,
        "meta_element_set_no": 999,
        "meta_rev_at_epoch": 95716,
        "meta_bstar": 0.0040382694,
        "meta_mean_motion_dot": 9.659e-05,
        "meta_mean_motion_ddot": 0,
        "tle_line1": "1 31178U 99025BJG 25339.77295934  .00009659  00000+0  40383-2 0  9991",
        "tle_line2": "2 31178  99.5124 341.4630 0126343 335.2641  24.2509 14.22098654957167"
      },
      "geometry": {
        "type": "Point",
        "coordinates": [
          -18.984369649936244,
          7.162348569815715
        ]
      }
    },
    {
      "type": "Feature",
      "properties": {
        "norad_id": 31179,
        "name": "FENGYUN 1C DEB",
        "group": "fengyun-1c-debris",
        "lat": 1.4785308374912454,
        "lon": -179.19474005106883,
        "alt_km": 1072.7919725749744,
        "timestamp": "2025-12-06T11:28:11.343261+00:00",
        "meta_object_name": "FENGYUN 1C DEB",
        "meta_object_id": "1999-025BJH",
        "meta_epoch": "2025-12-05T07:01:13.321920",
        "meta_mean_motion": 13.91889906,
        "meta_eccentricity": 0.0215815,
        "meta_inclination": 99.0199,
        "meta_ra_of_asc_node": 359.4166,
        "meta_arg_of_pericenter": 21.1371,
        "meta_mean_anomaly": 339.8541,
        "meta_ephemeris_type": 0,
        "meta_classification_type": "U",
        "meta_norad_cat_id": 31179,
        "meta_element_set_no": 999,
        "meta_rev_at_epoch": 61837,
        "meta_bstar": 0.0018729323,
        "meta_mean_motion_dot": 2.844e-05,
        "meta_mean_motion_ddot": 0,
        "tle_line1": "1 31179U 99025BJH 25339.29251530  .00002844  00000+0  18729-2 0  9991",
        "tle_line2": "2 31179  99.0199 359.4166 0215815  21.1371 339.8541 13.91889906618373"
      },
      "geometry": {
        "type": "Point",
        "coordinates": [
          -179.19474005106883,
          1.4785308374912454
        ]
      }
    },
    {
      "type": "Feature",
      "properties": {
        "norad_id": 31180,
        "name": "FENGYUN 1C DEB",
        "group": "fengyun-1c-debris",
        "lat": 48.86955741039783,
        "lon": 101.53315992190768,
        "alt_km": 661.5772057269205,
        "timestamp": "2025-12-06T11:28:11.343271+00:00",
        "meta_object_name": "FENGYUN 1C DEB",
        "meta_object_id": "1999-025BJJ",
        "meta_epoch": "2025-12-04T03:57:54.779904",
        "meta_mean_motion": 13.70330366,
        "meta_eccentricity": 0.04984488,
        "meta_inclination": 99.2171,
        "meta_ra_of_asc_node": 110.0219,
        "meta_arg_of_pericenter": 82.4883,
        "meta_mean_anomaly": 86.8977,
        "meta_ephemeris_type": 0,
        "meta_classification_type": "U",
        "meta_norad_cat_id": 31180,
        "meta_element_set_no": 999,
        "meta_rev_at_epoch": 63949,
        "meta_bstar": 0.00041828021,
        "meta_mean_motion_dot": 8.53e-06,
        "meta_mean_motion_ddot": 0,
        "tle_line1": "1 31180U 99025BJJ 25338.16521736  .00000853  00000+0  41828-3 0  9991",
        "tle_line2": "2 31180  99.2171 110.0219 0498448  82.4883  86.8977 13.70330366639496"
      },
      "geometry": {
        "type": "Point",
        "coordinates": [
          101.53315992190768,
          48.86955741039783
        ]
      }
    },
    {
      "type": "Feature",
      "properties": {
        "norad_id": 31181,
        "name": "FENGYUN 1C DEB",
        "group": "fengyun-1c-debris",
        "lat": 79.98875256823368,
        "lon": -47.888214580654406,
        "alt_km": 810.9310627728055,
        "timestamp": "2025-12-06T11:28:11.343281+00:00",
        "meta_object_name": "FENGYUN 1C DEB",
        "meta_object_id": "1999-025BJK",
        "meta_epoch": "2025-12-05T13:40:36.366240",
        "meta_mean_motion": 14.1184972,
        "meta_eccentricity": 0.0048285,
        "meta_inclination": 98.7759,
        "meta_ra_of_asc_node": 12.2764,
        "meta_arg_of_pericenter": 94.4704,
        "meta_mean_anomaly": 58.0667,
        "meta_ephemeris_type": 0,
        "meta_classification_type": "U",
        "meta_norad_cat_id": 31181,
        "meta_element_set_no": 999,
        "meta_rev_at_epoch": 95666,
        "meta_bstar": 0.0016245176,
        "meta_mean_motion_dot": 2.956e-05,
        "meta_mean_motion_ddot": 0,
        "tle_line1": "1 31181U 99025BJK 25339.56986535  .00002956  00000+0  16245-2 0  9999",
        "tle_line2": "2 31181  98.7759  12.2764 0048285  94.4704  58.0667 14.11849720956669"
      },
      "geometry": {
        "type": "Point",
        "coordinates": [
          -47.888214580654406,
          79.98875256823368
        ]
      }
    },
    {
      "type": "Feature",
      "properties": {
        "norad_id": 31182,
        "name": "FENGYUN 1C DEB",
        "group": "fengyun-1c-debris",
        "lat": 2.2265162638041134,
        "lon": 149.86699342418765,
        "alt_km": 831.492853482493,
        "timestamp": "2025-12-06T11:28:11.343291+00:00",
        "meta_object_name": "FENGYUN 1C DEB",
        "meta_object_id": "1999-025BJL",
        "meta_epoch": "2025-11-30T19:23:45.055104",
        "meta_mean_motion": 14.14526628,
        "meta_eccentricity": 0.00226562,
        "meta_inclination": 98.6809,
        "meta_ra_of_asc_node": 324.0155,
        "meta_arg_of_pericenter": 170.3323,
        "meta_mean_anomaly": 311.2725,
        "meta_ephemeris_type": 0,
        "meta_classification_type": "U",
        "meta_norad_cat_id": 31182,
        "meta_element_set_no": 999,
        "meta_rev_at_epoch": 95912,
        "meta_bstar": 0.00037537528,
        "meta_mean_motion_dot": 6.79e-06,
        "meta_mean_motion_ddot": 0,
        "tle_line1": "1 31182U 99025BJL 25334.80816036  .00000679  00000+0  37538-3 0  9999",
        "tle_line2": "2 31182  98.6809 324.0155 0022656 170.3323 311.2725 14.14526628959123"
      },
      "geometry": {
        "type": "Point",
        "coordinates": [
          149.86699342418765,
          2.2265162638041134
        ]
      }
    },
    {
      "type": "Feature",
      "properties": {
        "norad_id": 31183,
        "name": "FENGYUN 1C DEB",
        "group": "fengyun-1c-debris",
        "lat": 1.5707008940588407,
        "lon": -36.485191370370735,
        "alt_km": 745.9856973852848,
        "timestamp": "2025-12-06T11:28:11.343300+00:00",
        "meta_object_name": "FENGYUN 1C DEB",
        "meta_object_id": "1999-025BJM",
        "meta_epoch": "2025-12-05T22:28:30.215712",
        "meta_mean_motion": 14.50340078,
        "meta_eccentricity": 0.00472128,
        "meta_inclination": 99.0351,
        "meta_ra_of_asc_node": 323.1843,
        "meta_arg_of_pericenter": 127.5251,
        "meta_mean_anomaly": 289.2234,
        "meta_ephemeris_type": 0,
        "meta_classification_type": "U",
        "meta_norad_cat_id": 31183,
        "meta_element_set_no": 999,
        "meta_rev_at_epoch": 97384,
        "meta_bstar": 0.0021191731,
        "meta_mean_motion_dot": 8.342e-05,
        "meta_mean_motion_ddot": 0,
        "tle_line1": "1 31183U 99025BJM 25339.93646083  .00008342  00000+0  21192-2 0  9995",
        "tle_line2": "2 31183  99.0351 323.1843 0047212 127.5251 289.2234 14.50340078973841"
      },
      "geometry": {
        "type": "Point",
        "coordinates": [
          -36.485191370370735,
          1.5707008940588407
        ]
      }
    },
    {
      "type": "Feature",
      "properties": {
        "norad_id": 31185,
        "name": "FENGYUN 1C DEB",
        "group": "fengyun-1c-debris",
        "lat": -61.07124389130267,
        "lon": -6.524177655697083,
        "alt_km": 920.3360687833156,
        "timestamp": "2025-12-06T11:28:11.343310+00:00",
        "meta_object_name": "FENGYUN 1C DEB",
        "meta_object_id": "1999-025BJP",
        "meta_epoch": "2025-12-03T06:44:56.905152",
        "meta_mean_motion": 14.03019915,
        "meta_eccentricity": 0.0041359,
        "meta_inclination": 98.8321,
        "meta_ra_of_asc_node": 334.0356,
        "meta_arg_of_pericenter": 132.5488,
        "meta_mean_anomaly": 227.9182,
        "meta_ephemeris_type": 0,
        "meta_classification_type": "U",
        "meta_norad_cat_id": 31185,
        "meta_element_set_no": 999,
        "meta_rev_at_epoch": 62204,
        "meta_bstar": 0.0004459,
        "meta_mean_motion_dot": 6.55e-06,
        "meta_mean_motion_ddot": 0,
        "tle_line1": "1 31185U 99025BJP 25337.28121418  .00000655  00000+0  44590-3 0  9990",
        "tle_line2": "2 31185  98.8321 334.0356 0041359 132.5488 227.9182 14.03019915622046"
      },
      "geometry": {
        "type": "Point",
        "coordinates": [
          -6.524177655697083,
          -61.07124389130267
        ]
      }
    }
  ]
}